[{"OBJECT_NAME":"METOP-C","OBJECT_ID":"2018-087A","EPOCH":"2026-03-04T02:52:40.035648","MEAN_MOTION":14.21494934,"ECCENTRICITY":0.0002168,"INCLINATION":98.6776,"RA_OF_ASC_NODE":124.5872,"ARG_OF_PERICENTER":107.6389,"MEAN_ANOMALY":252.5026,"EPHEMERIS_TYPE":0,"CLASSIFICATION_TYPE":"U","NORAD_CAT_ID":43689,"ELEMENT_SET_NO":999,"REV_AT_EPOCH":37990,"BSTAR":0.00010011,"MEAN_MOTION_DOT":1.76e-6,"MEAN_MOTION_DDOT":0},{"OBJECT_NAME":"GEO-KOMPSAT-2A","OBJECT_ID":"2018-100A","EPOCH":"2026-03-03T12:58:29.015040","MEAN_MOTION":1.00269693,"ECCENTRICITY":0.0001385,"INCLINATION":0.0217,"RA_OF_ASC_NODE":70.8317,"ARG_OF_PERICENTER":331.7632,"MEAN_ANOMALY":81.5654,"EPHEMERIS_TYPE":0,"CLASSIFICATION_TYPE":"U","NORAD_CAT_ID":43823,"ELEMENT_SET_NO":999,"REV_AT_EPOCH":2657,"BSTAR":0,"MEAN_MOTION_DOT":-3.59e-6,"MEAN_MOTION_DDOT":0},{"OBJECT_NAME":"METEOR-M2 2","OBJECT_ID":"2019-038A","EPOCH":"2026-03-04T03:43:32.806848","MEAN_MOTION":14.24331864,"ECCENTRICITY":0.0001198,"INCLINATION":98.9072,"RA_OF_ASC_NODE":48.9303,"ARG_OF_PERICENTER":14.0025,"MEAN_ANOMALY":346.1186,"EPHEMERIS_TYPE":0,"CLASSIFICATION_TYPE":"U","NORAD_CAT_ID":44387,"ELEMENT_SET_NO":999,"REV_AT_EPOCH":34634,"BSTAR":0.000185,"MEAN_MOTION_DOT":3.82e-6,"MEAN_MOTION_DDOT":0},{"OBJECT_NAME":"ARKTIKA-M 1","OBJECT_ID":"2021-016A","EPOCH":"2026-03-02T19:44:56.440608","MEAN_MOTION":2.00620868,"ECCENTRICITY":0.72428147,"INCLINATION":63.2036,"RA_OF_ASC_NODE":72.8571,"ARG_OF_PERICENTER":269.4536,"MEAN_ANOMALY":15.2019,"EPHEMERIS_TYPE":0,"CLASSIFICATION_TYPE":"U","NORAD_CAT_ID":47719,"ELEMENT_SET_NO":999,"REV_AT_EPOCH":3665,"BSTAR":0,"MEAN_MOTION_DOT":-1.08e-6,"MEAN_MOTION_DDOT":0},{"OBJECT_NAME":"FENGYUN 3E","OBJECT_ID":"2021-062A","EPOCH":"2026-03-04T03:14:34.772352","MEAN_MOTION":14.19893503,"ECCENTRICITY":0.0002438,"INCLINATION":98.7506,"RA_OF_ASC_NODE":67.7107,"ARG_OF_PERICENTER":52.669,"MEAN_ANOMALY":307.4708,"EPHEMERIS_TYPE":0,"CLASSIFICATION_TYPE":"U","NORAD_CAT_ID":49008,"ELEMENT_SET_NO":999,"REV_AT_EPOCH":24167,"BSTAR":0.00013706,"MEAN_MOTION_DOT":2.47e-6,"MEAN_MOTION_DDOT":0},{"OBJECT_NAME":"GOES 18","OBJECT_ID":"2022-021A","EPOCH":"2026-03-04T03:06:57.676608","MEAN_MOTION":1.00271909,"ECCENTRICITY":6.38e-5,"INCLINATION":0.0295,"RA_OF_ASC_NODE":75.6636,"ARG_OF_PERICENTER":321.8586,"MEAN_ANOMALY":34.084,"EPHEMERIS_TYPE":0,"CLASSIFICATION_TYPE":"U","NORAD_CAT_ID":51850,"ELEMENT_SET_NO":999,"REV_AT_EPOCH":553,"BSTAR":0,"MEAN_MOTION_DOT":8.4e-7,"MEAN_MOTION_DDOT":0},{"OBJECT_NAME":"NOAA 21 (JPSS-2)","OBJECT_ID":"2022-150A","EPOCH":"2026-03-04T02:00:03.731328","MEAN_MOTION":14.19550398,"ECCENTRICITY":0.0002529,"INCLINATION":98.755,"RA_OF_ASC_NODE":3.4137,"ARG_OF_PERICENTER":116.5333,"MEAN_ANOMALY":243.6103,"EPHEMERIS_TYPE":0,"CLASSIFICATION_TYPE":"U","NORAD_CAT_ID":54234,"ELEMENT_SET_NO":999,"REV_AT_EPOCH":17163,"BSTAR":7.7136e-5,"MEAN_MOTION_DOT":1.19e-6,"MEAN_MOTION_DDOT":0},{"OBJECT_NAME":"METEOSAT-12 (MTG-I1)","OBJECT_ID":"2022-170C","EPOCH":"2026-03-04T03:46:01.432128","MEAN_MOTION":1.00269421,"ECCENTRICITY":0.0002164,"INCLINATION":0.701,"RA_OF_ASC_NODE":21.321,"ARG_OF_PERICENTER":284.8552,"MEAN_ANOMALY":271.9438,"EPHEMERIS_TYPE":0,"CLASSIFICATION_TYPE":"U","NORAD_CAT_ID":54743,"ELEMENT_SET_NO":999,"REV_AT_EPOCH":1192,"BSTAR":0,"MEAN_MOTION_DOT":-2.0e-7,"MEAN_MOTION_DDOT":0},{"OBJECT_NAME":"TIANMU-1 03","OBJECT_ID":"2023-039A","EPOCH":"2026-03-04T04:14:08.591712","MEAN_MOTION":15.43952011,"ECCENTRICITY":0.0003981,"INCLINATION":97.5168,"RA_OF_ASC_NODE":233.3101,"ARG_OF_PERICENTER":116.9972,"MEAN_ANOMALY":243.1683,"EPHEMERIS_TYPE":0,"CLASSIFICATION_TYPE":"U","NORAD_CAT_ID":55973,"ELEMENT_SET_NO":999,"REV_AT_EPOCH":16461,"BSTAR":0.00057917,"MEAN_MOTION_DOT":0.00026325,"MEAN_MOTION_DDOT":0},{"OBJECT_NAME":"TIANMU-1 04","OBJECT_ID":"2023-039B","EPOCH":"2026-03-04T04:50:01.457664","MEAN_MOTION":15.44359249,"ECCENTRICITY":0.0004651,"INCLINATION":97.5099,"RA_OF_ASC_NODE":232.4975,"ARG_OF_PERICENTER":113.2952,"MEAN_ANOMALY":246.8786,"EPHEMERIS_TYPE":0,"CLASSIFICATION_TYPE":"U","NORAD_CAT_ID":55974,"ELEMENT_SET_NO":999,"REV_AT_EPOCH":16462,"BSTAR":0.00059098,"MEAN_MOTION_DOT":0.00027242,"MEAN_MOTION_DDOT":0},{"OBJECT_NAME":"TIANMU-1 05","OBJECT_ID":"2023-039C","EPOCH":"2026-03-04T03:40:07.338144","MEAN_MOTION":15.43891531,"ECCENTRICITY":0.0003774,"INCLINATION":97.5145,"RA_OF_ASC_NODE":232.939,"ARG_OF_PERICENTER":134.4706,"MEAN_ANOMALY":225.6851,"EPHEMERIS_TYPE":0,"CLASSIFICATION_TYPE":"U","NORAD_CAT_ID":55975,"ELEMENT_SET_NO":999,"REV_AT_EPOCH":16459,"BSTAR":0.00056042,"MEAN_MOTION_DOT":0.00025414,"MEAN_MOTION_DDOT":0},{"OBJECT_NAME":"TIANMU-1 06","OBJECT_ID":"2023-039D","EPOCH":"2026-03-04T04:49:53.569344","MEAN_MOTION":15.44388911,"ECCENTRICITY":0.0004052,"INCLINATION":97.5156,"RA_OF_ASC_NODE":233.5245,"ARG_OF_PERICENTER":129.7882,"MEAN_ANOMALY":230.3723,"EPHEMERIS_TYPE":0,"CLASSIFICATION_TYPE":"U","NORAD_CAT_ID":55976,"ELEMENT_SET_NO":999,"REV_AT_EPOCH":16462,"BSTAR":0.00058878,"MEAN_MOTION_DOT":0.00027165,"MEAN_MOTION_DDOT":0},{"OBJECT_NAME":"FENGYUN 3G","OBJECT_ID":"2023-055A","EPOCH":"2026-03-04T04:03:55.923264","MEAN_MOTION":15.54204995,"ECCENTRICITY":0.0010735,"INCLINATION":49.9932,"RA_OF_ASC_NODE":167.5045,"ARG_OF_PERICENTER":348.4695,"MEAN_ANOMALY":11.6025,"EPHEMERIS_TYPE":0,"CLASSIFICATION_TYPE":"U","NORAD_CAT_ID":56232,"ELEMENT_SET_NO":999,"REV_AT_EPOCH":16368,"BSTAR":0.00066267,"MEAN_MOTION_DOT":0.0004392,"MEAN_MOTION_DDOT":0},{"OBJECT_NAME":"METEOR-M2 3","OBJECT_ID":"2023-091A","EPOCH":"2026-03-04T04:43:03.991008","MEAN_MOTION":14.24037009,"ECCENTRICITY":0.0005044,"INCLINATION":98.6226,"RA_OF_ASC_NODE":120.2598,"ARG_OF_PERICENTER":111.762,"MEAN_ANOMALY":248.4097,"EPHEMERIS_TYPE":0,"CLASSIFICATION_TYPE":"U","NORAD_CAT_ID":57166,"ELEMENT_SET_NO":999,"REV_AT_EPOCH":13957,"BSTAR":2.7781e-5,"MEAN_MOTION_DOT":2.1e-7,"MEAN_MOTION_DDOT":0},{"OBJECT_NAME":"TIANMU-1 07","OBJECT_ID":"2023-101A","EPOCH":"2026-03-04T03:40:40.761120","MEAN_MOTION":15.29076197,"ECCENTRICITY":0.0004459,"INCLINATION":97.2736,"RA_OF_ASC_NODE":116.2252,"ARG_OF_PERICENTER":149.5804,"MEAN_ANOMALY":210.5696,"EPHEMERIS_TYPE":0,"CLASSIFICATION_TYPE":"U","NORAD_CAT_ID":57399,"ELEMENT_SET_NO":999,"REV_AT_EPOCH":14559,"BSTAR":0.00020858,"MEAN_MOTION_DOT":5.815e-5,"MEAN_MOTION_DDOT":0},{"OBJECT_NAME":"TIANMU-1 08","OBJECT_ID":"2023-101B","EPOCH":"2026-03-04T02:57:28.647072","MEAN_MOTION":15.29236106,"ECCENTRICITY":0.0006498,"INCLINATION":97.2729,"RA_OF_ASC_NODE":115.9747,"ARG_OF_PERICENTER":142.5381,"MEAN_ANOMALY":217.6313,"EPHEMERIS_TYPE":0,"CLASSIFICATION_TYPE":"U","NORAD_CAT_ID":57400,"ELEMENT_SET_NO":999,"REV_AT_EPOCH":14558,"BSTAR":2.0954e-5,"MEAN_MOTION_DOT":5.22e-6,"MEAN_MOTION_DDOT":0},{"OBJECT_NAME":"TIANMU-1 09","OBJECT_ID":"2023-101C","EPOCH":"2026-03-04T04:04:49.893024","MEAN_MOTION":15.29227897,"ECCENTRICITY":0.0005302,"INCLINATION":97.2683,"RA_OF_ASC_NODE":115.5,"ARG_OF_PERICENTER":147.9632,"MEAN_ANOMALY":212.1931,"EPHEMERIS_TYPE":0,"CLASSIFICATION_TYPE":"U","NORAD_CAT_ID":57401,"ELEMENT_SET_NO":999,"REV_AT_EPOCH":14559,"BSTAR":3.0556e-5,"MEAN_MOTION_DOT":7.94e-6,"MEAN_MOTION_DDOT":0}]
