METOP-C                 
1 43689U 18087A   26063.11990782  .00000176  00000+0  10011-3 0  9997
2 43689  98.6776 124.5872 0002168 107.6389 252.5026 14.21494934379906
GEO-KOMPSAT-2A          
1 43823U 18100A   26062.54061360 -.00000359  00000+0  00000+0 0  9997
2 43823   0.0217  70.8317 0001385 331.7632  81.5654  1.00269693 26575
METEOR-M2 2             
1 44387U 19038A   26063.15524082  .00000382  00000+0  18500-3 0  9990
2 44387  98.9072  48.9303 0001198  14.0025 346.1186 14.24331864346346
ARKTIKA-M 1             
1 47719U 21016A   26061.82287547 -.00000108  00000+0  00000+0 0  9994
2 47719  63.2036  72.8571 7242814 269.4536  15.2019  2.00620868 36653
FENGYUN 3E              
1 49008U 21062A   26063.13512468  .00000247  00000+0  13706-3 0  9991
2 49008  98.7506  67.7107 0002438  52.6690 307.4708 14.19893503241673
GOES 18                 
1 51850U 22021A   26063.12983422  .00000084  00000+0  00000+0 0  9994
2 51850   0.0295  75.6636 0000638 321.8586  34.0840  1.00271909  5531
NOAA 21 (JPSS-2)        
1 54234U 22150A   26063.08337652  .00000119  00000+0  77136-4 0  9997
2 54234  98.7550   3.4137 0002529 116.5333 243.6103 14.19550398171634
METEOSAT-12 (MTG-I1)    
1 54743U 22170C   26063.15696102 -.00000020  00000+0  00000+0 0  9993
2 54743   0.7010  21.3210 0002164 284.8552 271.9438  1.00269421 11921
TIANMU-1 03             
1 55973U 23039A   26063.17648833  .00026325  00000+0  57917-3 0  9992
2 55973  97.5168 233.3101 0003981 116.9972 243.1683 15.43952011164612
TIANMU-1 04             
1 55974U 23039B   26063.20140576  .00027242  00000+0  59098-3 0  9999
2 55974  97.5099 232.4975 0004651 113.2952 246.8786 15.44359249164628
TIANMU-1 05             
1 55975U 23039C   26063.15286271  .00025414  00000+0  56042-3 0  9992
2 55975  97.5145 232.9390 0003774 134.4706 225.6851 15.43891531164592
TIANMU-1 06             
1 55976U 23039D   26063.20131446  .00027165  00000+0  58878-3 0  9996
2 55976  97.5156 233.5245 0004052 129.7882 230.3723 15.44388911164622
FENGYUN 3G              
1 56232U 23055A   26063.16939726  .00043920  00000+0  66267-3 0  9990
2 56232  49.9932 167.5045 0010735 348.4695  11.6025 15.54204995163682
METEOR-M2 3             
1 57166U 23091A   26063.19657397  .00000021  00000+0  27781-4 0  9995
2 57166  98.6226 120.2598 0005044 111.7620 248.4097 14.24037009139577
TIANMU-1 07             
1 57399U 23101A   26063.15324955  .00005815  00000+0  20858-3 0  9995
2 57399  97.2736 116.2252 0004459 149.5804 210.5696 15.29076197145591
TIANMU-1 08             
1 57400U 23101B   26063.12324823  .00000522  00000+0  20954-4 0  9997
2 57400  97.2729 115.9747 0006498 142.5381 217.6313 15.29236106145580
TIANMU-1 09             
1 57401U 23101C   26063.17002191  .00000794  00000+0  30556-4 0  9994
2 57401  97.2683 115.5000 0005302 147.9632 212.1931 15.29227897145593
